#dP2022 11  4  0  0  0.00000000      96 __u+U ITR00 FIT  IAC
## 2234 432000.00000000   900.00000000 59887 0.0000000000000
+  117   C06C07C08C09C10C11C12C13C14C16C19C20C21C22C23C24C25
+        C26C27C28C29C30C32C33C34C35C36C37C38C39C40C41C42C43
+        C44C45C46E01E02E03E04E05E07E08E09E10E11E12E13E14E15
+        E18E19E21E24E25E26E27E30E31E33E34E36G01G02G03G04G05
+        G06G07G08G09G10G11G12G13G14G15G16G17G18G19G20G21G22
+        G23G24G25G26G27G29G30G31G32J02J03J04R01R02R03R04R05
+        R07R08R09R11R12R13R14R15R17R18R19R20R21R22R24  0  0
++         8  9  8 10  8  8  7  8  7  8  6  6  7  7  9  8  7
++         7  7  9  6  8  5  6  6  6  6  7  8  6  8  8  8  8
++         7  7  6  7  0  5  6  6  6  7  5  7  7  7  7  6  6
++         7  6  7  7  7  6  7  7  6  7  6  6  5  6  7  5  6
++         6  5  5  6  6  6  6  7  6  6  7  6  7  7  6  7  5
++         7  6  6  7  6  5  6  6  6 11  8  8  7  6  7  5  6
++         7  7  9  6  6  7  7  7  6  6  8  7  6  6  6  0  0
%c M  cc GPS ccc cccc cccc cccc cccc ccccc ccccc ccccc ccccc
%c cc cc ccc ccc cccc cccc cccc cccc ccccc ccccc ccccc ccccc
%f  0.0000000  0.000000000  0.00000000000  0.000000000000000
%f  0.0000000  0.000000000  0.00000000000  0.000000000000000
%i    0    0    0    0      0      0      0      0         0
%i    0    0    0    0      0      0      0      0         0
/* INFORMATION & ANALYSIS CENTER (IAC)      ULTRA-RAPID DATA
/* S/V CLOCKS ARE ALIGNED TO GNSS TIME                      
/* G:C1WC2W R:C1PC2P E:C1XC5X C:C2IC6I J:C1CC2S             
/* PCV:IGS14_2233 OL/AL:FES2004  NONE     YN ORB:CoN CLK:CoN
*  2022 11 04 11  0  0.00000000
PC06 -17971.075137  31021.770665  22016.148376      9.023905
PC07  -5659.028943  39023.765154  15197.218276    261.785025
PC08  -4639.573719  20547.016354 -36516.372940    506.555088
PC09      0.000000      0.000000      0.000000 999999.999999
PC10    262.665503  41494.913591   9156.736640     73.627074
PC11   1212.584120 -18719.531049  20721.007862   -312.100480
PC12  17042.763425 -20839.722093   7351.819285    287.168008
PC13   5247.118386  24672.986211 -33592.869888    124.542455
PC14  -6280.251403 -27145.309026   -977.381643    624.347590
PC16 -22296.095149  30614.231856  18425.450317    121.328006
PC19  11848.993779  23154.757206  10141.498929   -918.923344
PC20    925.312549  27101.723617  -6630.229388    846.993927
PC21  11401.285676 -14922.658261  20643.261556   -748.516719
PC22  16425.720564   5693.834689  21823.746306   -812.707687
PC23 -26918.912316  -6604.030970   3289.785929   -881.210644
PC24   2226.946927 -16348.514394 -22517.766724   -853.693772
PC25 -19062.583195 -15705.405068 -13019.725026     19.621502
PC26  19103.747938  -8072.726047 -18666.618032    -31.097056
PC27 -21666.620097  17538.347997   1198.573470     46.208719
PC28 -22141.137187   3914.826022  16540.968187     32.071316
PC29   9555.459010  12840.195446 -22862.218185     35.929403
PC30  -8758.324427  22067.164588 -14655.369580      0.826153
PC32 -11332.813376  14932.325285 -20666.362940   -731.575537
PC33 -11938.753904 -23143.213458 -10023.455977   -919.308158
PC34   7741.167988 -21897.918547  15474.947307     31.755428
PC35  21513.186537  -3262.114486 -17493.574374     72.799336
PC36  18143.336717  16336.408587  13529.590084   -867.284101
PC37 -20354.995973   6707.010687  17900.851713   -727.728083
PC38 -13481.332867  19200.304807 -35032.793227     35.777453
PC39 -24556.815631  31327.260094  13625.783760     -0.786816
PC40 -10309.903580  36089.392905  19417.830214     -7.401446
PC41 -16476.208837  -6266.883412 -21590.666590   -241.039800
PC42    -86.013950 -26797.636442   7797.003215   -599.887420
PC43  -8891.513863 -13540.460107  22719.277781     23.181032
PC44  21131.920851 -18193.707178  -1426.993078    103.066437
PC45  26906.604251   6371.639807  -3654.330073    -18.185687
PC46   -234.313925  16706.567880  22346.311026    -10.754800
PE01  -6355.315182 -24127.745266 -15927.864165   -559.481705
PE02      0.000000      0.000000      0.000000 999999.999999
PE03  -2773.411171  27975.725634   9267.537898   -616.583383
PE04 -10980.289878 -16169.766525 -22232.774762  -1151.239360
PE05 -15200.390761  23582.388493  -9435.361264   -127.959942
PE07  18591.442778  -5568.147381  22345.496438   -718.716078
PE08  10899.256527  16089.789245  22321.285237   -626.702898
PE09 -18435.609532   5440.031314 -22518.235498   -717.144156
PE10 -26272.892921  -3425.444278  13208.270854   -488.426892
PE11 -29203.984684   3580.092163   3218.299954   1483.051528
PE12 -19448.685064  -9522.304046  20177.886839   -258.751136
PE13  29150.287500  -3074.577078  -4099.640654    430.654518
PE14  14263.920325  15646.416065 -23800.102984     46.996930
PE15  19222.622729   9560.835248 -20367.872182    709.662934
PE18 -16719.371584  -1319.089510  18424.670855   -782.660578
PE19   4815.980529 -28382.109594  -6906.432146  -4086.326280
PE21   9956.354756 -13789.097944 -24222.701143   -492.662548
PE24 -22134.062407  -6189.733887  18659.831390   -928.621570
PE25 -10227.172922  13524.878391  24270.909726   -591.857657
PE26  21200.702010 -14147.778941  15046.619142  -1805.746662
PE27  21837.569391   5156.770695 -19291.253956   -431.472593
PE30  20345.577481  21363.001281  -2304.535411   -971.027249
PE31 -20763.326586 -20879.786182   3070.788147   -507.339999
PE33   1979.205270 -16475.123944  24517.193868   -455.321099
PE34  -1766.344741  16462.365713 -24541.406931    -12.885569
PE36 -21892.885621  13771.154529 -14393.422884   -455.840067
PG01   8222.014420  13549.945314 -21682.692554    256.942845
PG02 -10019.513993 -13134.002531  21418.570567   -639.405698
PG03  11068.242321  23193.943892  -7051.868970   -370.535638
PG04   2448.150722  20881.512779  16170.705324    -92.312053
PG05  -1245.705497 -20292.391144  16851.403175   -102.992343
PG06  25089.246218  -6532.160903   6013.662490    509.627936
PG07  22126.101044   7406.740754  13554.450532    291.418543
PG08  -4795.082846  24902.346151  -7266.303266    -92.157684
PG09  11552.284248  11107.013286  21094.406049   -273.657114
PG10 -18761.585732  -4723.432842 -18181.851699    -10.437557
PG11  17484.261972 -12041.959015  15941.788357    -34.671602
PG12  -8893.187212 -23985.364722  -7612.781550   -300.231151
PG13  12958.213756 -23029.045085  -1508.616099    418.470415
PG14  19300.165550   6856.553458 -16962.599313    -87.384957
PG15   1330.122654 -25347.463484  -7745.813691    -15.261148
PG16  -5665.945590  16621.712211  19500.052746   -526.825448
PG17  16815.513116  -3279.649152 -19874.666734    674.925606
PG18 -23117.544535  -5985.162542  11777.964984     -9.555888
PG19  18436.116636 -13099.900791 -13947.029670    232.835658
PG20   9926.341451 -12027.268627  21521.696771    472.882260
PG21   -896.155227  15174.973622 -21097.196010    156.755516
PG22 -17540.026641  16248.662405 -10954.872889    358.216079
PG23 -20021.366325 -14114.175932 -10442.424092     -1.136473
PG24  -4349.012687 -15381.751080 -21557.419326     73.059392
PG25 -17081.567394 -20395.941562   2094.142605    389.243669
PG26 -13678.864958   8012.091724  21236.831327    234.746696
PG27 -12670.990118  22780.173521   3582.974466    185.311994
PG29  -9025.423806 -13241.107485  21123.462055   -564.731772
PG30  26570.797004   -579.974332   2648.148205   -536.963040
PG31 -24903.940925   6996.666044   6854.459568   -199.074158
PG32 -17278.293013   6757.448205 -18780.979818   -285.069685
PJ02 -24668.890169  23393.791238  29913.264033 999999.999999
PJ03 -35358.796279  21923.808837  -2218.642921     -4.016435
PJ04 -20285.708015  27547.978051 -19500.864873    112.526214
PR01  10745.666840  -4228.281984  22737.885071     17.323848
PR02   5670.352856 -21585.341944  12454.607813    -23.203184
PR03  -2628.907370 -24966.412366  -4670.499875     66.684310
PR04  -9016.724200 -14459.245253 -18968.227496    163.671913
PR05 -10635.902947   3879.323056 -22851.249202    102.356213
PR07   3015.127580  24689.861656   5557.626404     43.721833
PR08   9257.175418  14207.404308  19091.102264    -67.918817
PR09  -6688.140457   9239.350829  22830.966013     85.729951
PR11  21636.167564  13186.270296   3016.892700     22.258698
PR12  20403.428209   2990.359671 -14974.782785     22.572332
PR13   8205.767535  -8012.889457 -22796.781391    -28.506235
PR14 -10595.649251 -15319.673978 -17406.715583     24.159672
PR15 -21838.529972 -13037.614851  -1916.821438     92.850774
PR17   2094.519607 -12828.021687  21951.407645    575.102998
PR18 -13457.763940  -3305.328570  21424.194076     50.355509
PR19 -22136.842008   6565.220632  10858.315005   -209.739698
PR20 -18389.467327  14807.883860  -9600.838711    -81.500899
PR21   -678.187055  12095.148615 -22448.620283   -346.990689
PR22  14157.124013   3607.592538 -20882.733234     15.361757
PR24  17418.057164 -15614.033220  10166.873766    124.415331
EOF
